{
    "links": {
        "self": "http://www.neowsapp.com/rest/v1/neo/3943322?api_key=iIulBulltgU6a56xZRHN4H3l9WmuAYTsLGpBGhQ2"
    },
    "id": "3943322",
    "neo_reference_id": "3943322",
    "name": "(2019 YW)",
    "designation": "2019 YW",
    "nasa_jpl_url": "http://ssd.jpl.nasa.gov/sbdb.cgi?sstr=3943322",
    "absolute_magnitude_h": 23.5,
    "estimated_diameter": {
        "kilometers": {
            "estimated_diameter_min": 0.0530340723,
            "estimated_diameter_max": 0.1185877909
        },
        "meters": {
            "estimated_diameter_min": 53.0340723319,
            "estimated_diameter_max": 118.5877908577
        },
        "miles": {
            "estimated_diameter_min": 0.0329538346,
            "estimated_diameter_max": 0.0736870142
        },
        "feet": {
            "estimated_diameter_min": 173.9963058693,
            "estimated_diameter_max": 389.0675677576
        }
    },
    "is_potentially_hazardous_asteroid": false,
    "close_approach_data": [
        {
            "close_approach_date": "2020-01-06",
            "close_approach_date_full": "2020-Jan-06 15:01",
            "epoch_date_close_approach": 1578322860000,
            "relative_velocity": {
                "kilometers_per_second": "13.4289496255",
                "kilometers_per_hour": "48344.2186517924",
                "miles_per_hour": "30039.2174172763"
            },
            "miss_distance": {
                "astronomical": "0.0628032365",
                "lunar": "24.4304589985",
                "kilometers": "9395230.409506255",
                "miles": "5837925.468266119"
            },
            "orbiting_body": "Earth"
        }
    ],
    "orbital_data": {
        "orbit_id": "8",
        "orbit_determination_date": "2020-01-08 06:23:06",
        "first_observation_date": "2019-12-19",
        "last_observation_date": "2020-01-04",
        "data_arc_in_days": 16,
        "observations_used": 54,
        "orbit_uncertainty": "8",
        "minimum_orbit_intersection": ".00138376",
        "jupiter_tisserand_invariant": "3.771",
        "epoch_osculation": "2458841.5",
        "eccentricity": ".542867328773514",
        "semi_major_axis": "1.885302430652122",
        "inclination": "1.695131300269833",
        "ascending_node_longitude": "212.1662732746905",
        "orbital_period": "945.518363664786",
        "perihelion_distance": ".8618333361937914",
        "perihelion_argument": "308.8884409935556",
        "aphelion_distance": "2.908771525110452",
        "perihelion_time": "2458893.120288902459",
        "mean_anomaly": "340.3459089542616",
        "mean_motion": ".3807435305694714",
        "equinox": "J2000",
        "orbit_class": {
            "orbit_class_type": "APO",
            "orbit_class_description": "Near-Earth asteroid orbits which cross the Earth’s orbit similar to that of 1862 Apollo",
            "orbit_class_range": "a (semi-major axis) > 1.0 AU; q (perihelion) < 1.017 AU"
        }
    },
    "is_sentry_object": false
}